0 DELTA 1 DEB
1 37651U 78026JN  13283.87663645  .00000824  00000-0  40750-3 0  1789
2 37651 099.1463 154.1149 0042491 031.6207 328.7562 14.19808815544629
0 DELTA 1 DEB
1 37651U 78026JN  13287.89346177  .00000860  00000-0  42435-3 0  1796
2 37651 099.1470 158.2649 0042889 019.9271 340.3626 14.19817082545198
0 DELTA 1 DEB
1 37651U 78026JN  13290.43038468  .00000919  00000-0  45183-3 0  1801
2 37651 099.1458 160.8814 0042828 011.8577 348.3781 14.19823859545559
0 DELTA 1 DEB
1 37651U 78026JN  13291.41696213  .00000956  00000-0  46916-3 0  1815
2 37651 099.1461 161.8997 0042614 009.6043 350.6227 14.19826962545696
0 DELTA 1 DEB
1 37651U 78026JN  13293.88340010  .00000985  00000-0  48259-3 0  1824
2 37651 099.1454 164.4442 0042108 001.9447 358.2201 14.19832976546041
0 DELTA 1 DEB
1 37651U 78026JN  13295.43372265  .00001032  00000-0  50455-3 0  1830
2 37651 099.1463 166.0479 0041832 358.3955 001.7263 14.19837588546261
